start=new Date('2022-05-15T00:00:00.000Z').valueOf();
sats=[{"NORAD_CAT_ID":"46699","EPHEMERIS_TYPE":"0","REF_FRAME":"TEME","FILE":"3445938","INCLINATION":"53.0555","DECAY_DATE":null,"OBJECT_TYPE":"PAYLOAD","PERIOD":"95.592","MEAN_MOTION_DOT":"0.00000618","REV_AT_EPOCH":"8690","LAUNCH_DATE":"2020-10-18","EPOCH":"2022-05-14T21:54:25.058592","MEAN_MOTION":"15.06405885","TLE_LINE1":"1 46699U 20073AF  22134.91279003  .00000618  00000-0  60371-4 0  9995","MEAN_ELEMENT_THEORY":"SGP4","TLE_LINE2":"2 46699  53.0555  23.0239 0001633  58.8451 301.2698 15.06405885 86906","TIME_SYSTEM":"UTC","SITE":"AFETR","CLASSIFICATION_TYPE":"U","BSTAR":"0.00006037100000","APOAPSIS":"548.326","CENTER_NAME":"EARTH","MEAN_MOTION_DDOT":"0.0000000000000","COUNTRY_CODE":"US","ELEMENT_SET_NO":"999","RCS_SIZE":"LARGE","PERIAPSIS":"546.065","ARG_OF_PERICENTER":"58.8451","SEMIMAJOR_AXIS":"6925.331","ECCENTRICITY":"0.00016330","OBJECT_NAME":"STARLINK-1799","RA_OF_ASC_NODE":"23.0239","OBJECT_ID":"2020-073AF","MEAN_ANOMALY":"301.2698","GP_ID":"203562043"},{"BSTAR":"0.00048108000000","SITE":"AFETR","CLASSIFICATION_TYPE":"U","MEAN_MOTION_DDOT":"0.0000000000000","COUNTRY_CODE":"US","ELEMENT_SET_NO":"999","APOAPSIS":"548.344","CENTER_NAME":"EARTH","RCS_SIZE":"LARGE","PERIAPSIS":"546.190","ARG_OF_PERICENTER":"60.7922","OBJECT_NAME":"STARLINK-1800","SEMIMAJOR_AXIS":"6925.402","ECCENTRICITY":"0.00015550","RA_OF_ASC_NODE":"41.5673","OBJECT_ID":"2020-073AG","GP_ID":"203527774","MEAN_ANOMALY":"299.3223","NORAD_CAT_ID":"46700","EPHEMERIS_TYPE":"0","REF_FRAME":"TEME","INCLINATION":"53.0563","FILE":"3445495","OBJECT_TYPE":"PAYLOAD","PERIOD":"95.593","MEAN_MOTION_DOT":"0.00006888","DECAY_DATE":null,"REV_AT_EPOCH":"8657","LAUNCH_DATE":"2020-10-18","MEAN_MOTION":"15.06382598","EPOCH":"2022-05-14T02:53:55.341888","TLE_LINE1":"1 46700U 20073AG  22134.12077942  .00006888  00000-0  48108-3 0  9997","TIME_SYSTEM":"UTC","TLE_LINE2":"2 46700  53.0563  41.5673 0001555  60.7922 299.3223 15.06382598 86572","MEAN_ELEMENT_THEORY":"SGP4"},{"OBJECT_NAME":"STARLINK-1801","SEMIMAJOR_AXIS":"6925.314","ECCENTRICITY":"0.00021250","RA_OF_ASC_NODE":"23.1581","OBJECT_ID":"2020-073AH","GP_ID":"203563045","MEAN_ANOMALY":"300.2344","BSTAR":"-0.00029328000000","SITE":"AFETR","CLASSIFICATION_TYPE":"U","COUNTRY_CODE":"US","MEAN_MOTION_DDOT":"0.0000000000000","ELEMENT_SET_NO":"999","APOAPSIS":"548.650","CENTER_NAME":"EARTH","RCS_SIZE":"LARGE","PERIAPSIS":"545.707","ARG_OF_PERICENTER":"59.8856","REV_AT_EPOCH":"8690","LAUNCH_DATE":"2020-10-18","MEAN_MOTION":"15.06411374","EPOCH":"2022-05-14T21:11:58.582752","TLE_LINE1":"1 46701U 20073AH  22134.88331693 -.00004649  00000-0 -29328-3 0  9995","TIME_SYSTEM":"UTC","TLE_LINE2":"2 46701  53.0569  23.1581 0002125  59.8856 300.2344 15.06411374 86900","MEAN_ELEMENT_THEORY":"SGP4","NORAD_CAT_ID":"46701","EPHEMERIS_TYPE":"0","REF_FRAME":"TEME","INCLINATION":"53.0569","FILE":"3445938","OBJECT_TYPE":"PAYLOAD","PERIOD":"95.591","MEAN_MOTION_DOT":"-0.00004649","DECAY_DATE":null},{"RCS_SIZE":"LARGE","PERIAPSIS":"546.068","ARG_OF_PERICENTER":"64.6028","SITE":"AFETR","CLASSIFICATION_TYPE":"U","BSTAR":"0.00010840000000","APOAPSIS":"548.275","CENTER_NAME":"EARTH","COUNTRY_CODE":"US","MEAN_MOTION_DDOT":"0.0000000000000","ELEMENT_SET_NO":"999","OBJECT_ID":"2020-073AJ","MEAN_ANOMALY":"295.5126","GP_ID":"203562013","SEMIMAJOR_AXIS":"6925.307","ECCENTRICITY":"0.00015940","OBJECT_NAME":"STARLINK-1802","RA_OF_ASC_NODE":"3.0988","FILE":"3445938","INCLINATION":"53.0564","DECAY_DATE":null,"MEAN_MOTION_DOT":"0.00001334","OBJECT_TYPE":"PAYLOAD","PERIOD":"95.591","NORAD_CAT_ID":"46702","EPHEMERIS_TYPE":"0","REF_FRAME":"TEME","TLE_LINE1":"1 46702U 20073AJ  22134.89620403  .00001334  00000-0  10840-3 0  9992","TLE_LINE2":"2 46702  53.0564   3.0988 0001594  64.6028 295.5126 15.06413694 87180","MEAN_ELEMENT_THEORY":"SGP4","TIME_SYSTEM":"UTC","REV_AT_EPOCH":"8718","LAUNCH_DATE":"2020-10-18","EPOCH":"2022-05-14T21:30:32.028192","MEAN_MOTION":"15.06413694"},{"RA_OF_ASC_NODE":"23.2394","ECCENTRICITY":"0.00016010","SEMIMAJOR_AXIS":"6925.351","OBJECT_NAME":"STARLINK-1803","MEAN_ANOMALY":"294.0983","GP_ID":"203562543","OBJECT_ID":"2020-073AK","CENTER_NAME":"EARTH","APOAPSIS":"548.325","ELEMENT_SET_NO":"999","COUNTRY_CODE":"US","MEAN_MOTION_DDOT":"0.0000000000000","CLASSIFICATION_TYPE":"U","SITE":"AFETR","BSTAR":"0.00012842000000","ARG_OF_PERICENTER":"66.0173","PERIAPSIS":"546.107","RCS_SIZE":"LARGE","EPOCH":"2022-05-14T20:40:07.285152","MEAN_MOTION":"15.06399237","LAUNCH_DATE":"2020-10-18","REV_AT_EPOCH":"8689","MEAN_ELEMENT_THEORY":"SGP4","TLE_LINE2":"2 46703  53.0558  23.2394 0001601  66.0173 294.0983 15.06399237 86893","TIME_SYSTEM":"UTC","TLE_LINE1":"1 46703U 20073AK  22134.86119543  .00001632  00000-0  12842-3 0  9993","REF_FRAME":"TEME","EPHEMERIS_TYPE":"0","NORAD_CAT_ID":"46703","DECAY_DATE":null,"OBJECT_TYPE":"PAYLOAD","MEAN_MOTION_DOT":"0.00001632","PERIOD":"95.592","FILE":"3445938","INCLINATION":"53.0558"},{"OBJECT_TYPE":"PAYLOAD","MEAN_MOTION_DOT":"-0.00001091","PERIOD":"95.592","DECAY_DATE":null,"INCLINATION":"53.0566","FILE":"3445938","REF_FRAME":"TEME","EPHEMERIS_TYPE":"0","NORAD_CAT_ID":"46704","TIME_SYSTEM":"UTC","MEAN_ELEMENT_THEORY":"SGP4","TLE_LINE2":"2 46704  53.0566   3.0446 0001482  79.4527 280.6629 15.06403103 87184","TLE_LINE1":"1 46704U 20073AL  22134.90726875 -.00001091  00000-0 -54362-4 0  9996","MEAN_MOTION":"15.06403103","EPOCH":"2022-05-14T21:46:28.020000","REV_AT_EPOCH":"8718","LAUNCH_DATE":"2020-10-18","ARG_OF_PERICENTER":"79.4527","RCS_SIZE":"LARGE","PERIAPSIS":"546.178","COUNTRY_CODE":"US","MEAN_MOTION_DDOT":"0.0000000000000","ELEMENT_SET_NO":"999","APOAPSIS":"548.230","CENTER_NAME":"EARTH","BSTAR":"-0.00005436200000","SITE":"AFETR","CLASSIFICATION_TYPE":"U","GP_ID":"203562788","MEAN_ANOMALY":"280.6629","OBJECT_ID":"2020-073AL","RA_OF_ASC_NODE":"3.0446","OBJECT_NAME":"STARLINK-1804","SEMIMAJOR_AXIS":"6925.339","ECCENTRICITY":"0.00014820"},{"RCS_SIZE":"LARGE","PERIAPSIS":"546.163","ARG_OF_PERICENTER":"60.3165","SITE":"AFETR","CLASSIFICATION_TYPE":"U","BSTAR":"-0.00006835400000","APOAPSIS":"548.318","CENTER_NAME":"EARTH","COUNTRY_CODE":"US","MEAN_MOTION_DDOT":"0.0000000000000","ELEMENT_SET_NO":"999","OBJECT_ID":"2020-073AM","MEAN_ANOMALY":"299.7979","GP_ID":"203526523","SEMIMAJOR_AXIS":"6925.375","ECCENTRICITY":"0.00015560","OBJECT_NAME":"STARLINK-1805","RA_OF_ASC_NODE":"40.0529","INCLINATION":"53.0557","FILE":"3445495","DECAY_DATE":null,"OBJECT_TYPE":"PAYLOAD","PERIOD":"95.593","MEAN_MOTION_DOT":"-0.00001299","EPHEMERIS_TYPE":"0","NORAD_CAT_ID":"46705","REF_FRAME":"TEME","TLE_LINE1":"1 46705U 20073AM  22134.45621494 -.00001299  00000-0 -68354-4 0  9994","MEAN_ELEMENT_THEORY":"SGP4","TLE_LINE2":"2 46705  53.0557  40.0529 0001556  60.3165 299.7979 15.06391292 86629","TIME_SYSTEM":"UTC","REV_AT_EPOCH":"8662","LAUNCH_DATE":"2020-10-18","EPOCH":"2022-05-14T10:56:56.970816","MEAN_MOTION":"15.06391292"},{"DECAY_DATE":null,"MEAN_MOTION_DOT":"0.00000520","OBJECT_TYPE":"PAYLOAD","PERIOD":"95.592","FILE":"3445938","INCLINATION":"53.0581","REF_FRAME":"TEME","NORAD_CAT_ID":"46706","EPHEMERIS_TYPE":"0","MEAN_ELEMENT_THEORY":"SGP4","TLE_LINE2":"2 46706  53.0581  23.1051 0001944  56.0107 304.1066 15.06407721 86902","TIME_SYSTEM":"UTC","TLE_LINE1":"1 46706U 20073AN  22134.89436391  .00000520  00000-0  53821-4 0  9990","EPOCH":"2022-05-14T21:27:53.041824","MEAN_MOTION":"15.06407721","LAUNCH_DATE":"2020-10-18","REV_AT_EPOCH":"8690","ARG_OF_PERICENTER":"56.0107","PERIAPSIS":"545.844","RCS_SIZE":"LARGE","CENTER_NAME":"EARTH","APOAPSIS":"548.536","ELEMENT_SET_NO":"999","MEAN_MOTION_DDOT":"0.0000000000000","COUNTRY_CODE":"US","CLASSIFICATION_TYPE":"U","SITE":"AFETR","BSTAR":"0.00005382100000","MEAN_ANOMALY":"304.1066","GP_ID":"203562513","OBJECT_ID":"2020-073AN","RA_OF_ASC_NODE":"23.1051","ECCENTRICITY":"0.00019440","SEMIMAJOR_AXIS":"6925.325","OBJECT_NAME":"STARLINK-1807"},{"MEAN_ANOMALY":"300.0421","GP_ID":"203562044","OBJECT_ID":"2020-073AP","RA_OF_ASC_NODE":"3.1329","SEMIMAJOR_AXIS":"6925.305","ECCENTRICITY":"0.00017840","OBJECT_NAME":"STARLINK-1808","ARG_OF_PERICENTER":"60.0745","RCS_SIZE":"LARGE","PERIAPSIS":"545.934","APOAPSIS":"548.405","CENTER_NAME":"EARTH","MEAN_MOTION_DDOT":"0.0000000000000","COUNTRY_CODE":"US","ELEMENT_SET_NO":"999","SITE":"AFETR","CLASSIFICATION_TYPE":"U","BSTAR":"0.00004963200000","MEAN_ELEMENT_THEORY":"SGP4","TLE_LINE2":"2 46707  53.0576   3.1329 0001784  60.0745 300.0421 15.06414358 87183","TIME_SYSTEM":"UTC","TLE_LINE1":"1 46707U 20073AP  22134.88514446  .00000458  00000-0  49632-4 0  9993","EPOCH":"2022-05-14T21:14:36.481344","MEAN_MOTION":"15.06414358","REV_AT_EPOCH":"8718","LAUNCH_DATE":"2020-10-18","DECAY_DATE":null,"OBJECT_TYPE":"PAYLOAD","MEAN_MOTION_DOT":"0.00000458","PERIOD":"95.591","FILE":"3445938","INCLINATION":"53.0576","REF_FRAME":"TEME","NORAD_CAT_ID":"46707","EPHEMERIS_TYPE":"0"},{"CENTER_NAME":"EARTH","APOAPSIS":"318.433","ELEMENT_SET_NO":"999","MEAN_MOTION_DDOT":"0.0000000000000","COUNTRY_CODE":"US","CLASSIFICATION_TYPE":"U","SITE":"AFETR","BSTAR":"0.00105560000000","ARG_OF_PERICENTER":"322.6258","PERIAPSIS":"307.965","RCS_SIZE":"LARGE","RA_OF_ASC_NODE":"274.0907","ECCENTRICITY":"0.00078220","SEMIMAJOR_AXIS":"6691.334","OBJECT_NAME":"STARLINK-1809","MEAN_ANOMALY":"37.4221","GP_ID":"203562290","OBJECT_ID":"2020-073AQ","REF_FRAME":"TEME","NORAD_CAT_ID":"46708","EPHEMERIS_TYPE":"0","DECAY_DATE":null,"MEAN_MOTION_DOT":"0.00275287","OBJECT_TYPE":"PAYLOAD","PERIOD":"90.788","FILE":"3445938","INCLINATION":"53.0450","EPOCH":"2022-05-14T21:18:53.924832","MEAN_MOTION":"15.86111595","LAUNCH_DATE":"2020-10-18","REV_AT_EPOCH":"8843","TLE_LINE2":"2 46708  53.0450 274.0907 0007822 322.6258  37.4221 15.86111595 88434","MEAN_ELEMENT_THEORY":"SGP4","TIME_SYSTEM":"UTC","TLE_LINE1":"1 46708U 20073AQ  22134.88812413  .00275287  00000-0  10556-2 0  9994"}];
